[{"OBJECT_ID":"2012-008A","OBJECT_NAME":"BEIDOU G5","NORAD_CAT_ID":"38091","OBJECT_TYPE":"PAYLOAD","PERIOD":"1436.096","INCLINATION":"1.7378","APOGEE":"35798.963","PERIGEE":"35774.196","ECCENTRICITY":"0.0002937","MEAN_MOTION":"1.00271845","TLE_LINE1":"1 38091U 12008A   16239.11875233  .00000029  00000-0  00000+0 0  9993","TLE_LINE2":"2 38091   1.7378  50.0749 0002937 172.6257 213.4979  1.00271845 16566","LAUNCH_DATE":"2012-02-24","LAUNCH_SITE":"Xichang Space Center, China","OWNER":"PEOPLES REPUBLIC OF CHINA","ORBIT_TYPE":"Geosynchronous","OPERATIONAL_STATUS":"Operational","satInfo":{"lng":91.6615691377589,"lat":-0.4505157676818276,"elevation":-9.016141913344065,"azimuth":223.3384308622411,"range":42678.25556029769,"height":35774.09755218627,"velocity":3.075584925319384},"x":267,"y":8,"dx":-0.08917900725000856,"dy":3.074291745673748},{"OBJECT_ID":"2012-012A","OBJECT_NAME":"COSMOS 2479","NORAD_CAT_ID":"38101","OBJECT_TYPE":"PAYLOAD","PERIOD":"1435.318","INCLINATION":"1.0844","APOGEE":"35786.715","PERIGEE":"35755.988","ECCENTRICITY":"0.0003645","MEAN_MOTION":"1.00326192","TLE_LINE1":"1 38101U 12012A   16239.07331050  .00000016  00000-0  00000+0 0  9995","TLE_LINE2":"2 38101   1.0844  61.1857 0003645 189.5743 115.6892  1.00326192 16143","LAUNCH_DATE":"2012-03-30","LAUNCH_SITE":"TYURATAM MISSILE AND SPACE COMPLEX","OWNER":"COMMONWEALTH OF INDEPENDENT STATES","ORBIT_TYPE":"Geosynchronous","OPERATIONAL_STATUS":"Nonoperational","satInfo":{"lng":-125.28643151328026,"lat":-1.9933478099560242,"elevation":-10.52230017581245,"azimuth":80.28643151328025,"range":42828.04472594781,"height":35755.17747957502,"velocity":3.0757864920456717},"x":-218,"y":163,"dx":-1.776772157754331,"dy":-2.5106858115024346},{"OBJECT_ID":"2012-012D","OBJECT_NAME":"SL-12 R/B(2)","NORAD_CAT_ID":"38104","OBJECT_TYPE":"ROCKET BODY","PERIOD":"1435.458","INCLINATION":"1.0556","APOGEE":"35831.269","PERIGEE":"35716.935","ECCENTRICITY":"0.0013562","MEAN_MOTION":"1.00316371","TLE_LINE1":"1 38104U 12012D   16238.51774998 +.00000085 +00000-0 +00000-0 0  9995","TLE_LINE2":"2 38104 001.0556 060.8260 0013562 222.0632 068.5336 01.00316371016135","LAUNCH_DATE":"2012-03-30","LAUNCH_SITE":"TYURATAM MISSILE AND SPACE COMPLEX","OWNER":"COMMONWEALTH OF INDEPENDENT STATES","ORBIT_TYPE":"Geosynchronous","OPERATIONAL_STATUS":"N/A, derelict rocket body","satInfo":{"lng":26.414663729964197,"lat":2.8155151615708145,"elevation":-5.808982607578788,"azimuth":288.5853362700358,"range":42355.45612289754,"height":35810.69348791939,"velocity":3.072149745468442},"x":119,"y":-253,"dx":2.7514109688531625,"dy":1.3666900669340933},{"OBJECT_ID":"2012-023C","OBJECT_NAME":"ARIANE 5 R/B","NORAD_CAT_ID":"38333","OBJECT_TYPE":"ROCKET BODY","PERIOD":"607.246","INCLINATION":"1.6191","APOGEE":"34499.620","PERIGEE":"252.096","ECCENTRICITY":"0.7208793","MEAN_MOTION":"2.3713618","TLE_LINE1":"1 38333U 12023C   16238.69428862 +.00003248 +00000-0 +10000-2 0  9993","TLE_LINE2":"2 38333 001.6191 097.6806 7208793 053.7329 353.2781 02.37136180036426","LAUNCH_DATE":"2012-05-15","LAUNCH_SITE":"FRENCH GUIANA","OWNER":"FRANCE","ORBIT_TYPE":"Highly Elliptical Orbit","OPERATIONAL_STATUS":"N/A, derelict rocket body","satInfo":{"lng":-84.3899227470347,"lat":3.2975564712942407,"elevation":-15.450424832112821,"azimuth":39.38992274703468,"range":19753.976646356132,"height":12693.463901812922,"velocity":4.961753603049101},"x":-95,"y":-10,"dx":0.4850508114280028,"dy":-4.937987902749841},{"OBJECT_ID":"2012-023D","OBJECT_NAME":"ARIANE 5 DEB (SYLDA)","NORAD_CAT_ID":"38334","OBJECT_TYPE":"DEBRIS","PERIOD":"426.178","INCLINATION":"1.5583","APOGEE":"24507.894","PERIGEE":"254.813","ECCENTRICITY":"0.6464217","MEAN_MOTION":"3.37886831","TLE_LINE1":"1 38334U 12023D   16239.45620165  .00023089  00000-0  38174-2 0  9996","TLE_LINE2":"2 38334   1.5583 277.4078 6464217  54.0688 349.8885  3.37886831 44102","LAUNCH_DATE":"2012-05-15","LAUNCH_SITE":"FRENCH GUIANA","OWNER":"FRANCE","ORBIT_TYPE":"Highly Elliptical Orbit","OPERATIONAL_STATUS":"N/A, space debris","satInfo":{"lng":-8.036464443797982,"lat":-0.09154131276372973,"elevation":-13.408775962653104,"azimuth":323.03646444379797,"range":27598.23774368757,"height":20467.81720641302,"velocity":2.4509703642803626},"x":-22,"y":-160,"dx":2.4269001074048537,"dy":-0.34265375418769894},{"OBJECT_ID":"2012-030B","OBJECT_NAME":"BLOCK DM-SL R/B","NORAD_CAT_ID":"38357","OBJECT_TYPE":"ROCKET BODY","PERIOD":"639.048","INCLINATION":"0.6873","APOGEE":"35632.758","PERIGEE":"763.527","ECCENTRICITY":"0.7094083","MEAN_MOTION":"2.25334974","TLE_LINE1":"1 38357U 12030B   16238.58063311 -.00000034  00000-0  00000+0 0  9996","TLE_LINE2":"2 38357   0.6873 340.1994 7094083 197.8834 110.7311  2.25334974728384","LAUNCH_DATE":"2012-06-01","LAUNCH_SITE":"SEA LAUNCH","OWNER":"SEA LAUNCH DEMO","ORBIT_TYPE":"Highly Elliptical Orbit","OPERATIONAL_STATUS":"N/A, derelict rocket body","satInfo":{"lng":-104.74138884659838,"lat":0.006258595305362189,"elevation":-11.220404717737406,"azimuth":59.741388846598355,"range":32652.420968037237,"height":25650.16319058364,"velocity":2.944671753687585},"x":-186,"y":51,"dx":-0.7492911776224642,"dy":-2.8477455062035752},{"OBJECT_ID":"2012-035B","OBJECT_NAME":"METEOSAT 10 (MSG 3)","NORAD_CAT_ID":"38552","OBJECT_TYPE":"PAYLOAD","PERIOD":"1436.053","INCLINATION":"0.5199","APOGEE":"35795.696","PERIGEE":"35775.778","ECCENTRICITY":"0.0002362","MEAN_MOTION":"1.0027485","TLE_LINE1":"1 38552U 12035B   16239.06984174 -.00000031  00000-0  00000+0 0  9998","TLE_LINE2":"2 38552   0.5199  17.2110 0002362 198.6794 144.0876  1.00274850 15304","LAUNCH_DATE":"2012-07-05","LAUNCH_SITE":"FRENCH GUIANA","OWNER":"EUROPEAN ORGANIZATION FOR THE EXPLOITATION OF METEOROLOGICAL SATELLITES","ORBIT_TYPE":"Geosynchronous","OPERATIONAL_STATUS":"Operational","satInfo":{"lng":13.559613036181474,"lat":0.6515881881282458,"elevation":-7.9342873495121315,"azimuth":301.4403869638185,"range":42582.41651622183,"height":35799.36417736471,"velocity":3.0742088291068006},"x":62,"y":-274,"dx":2.9885198919449234,"dy":0.7207695751123995},{"OBJECT_ID":"2012-043A","OBJECT_NAME":"INTELSAT 20","NORAD_CAT_ID":"38740","OBJECT_TYPE":"PAYLOAD","PERIOD":"1436.093","INCLINATION":"0.0126","APOGEE":"35787.841","PERIGEE":"35785.210","ECCENTRICITY":"3.12e-05","MEAN_MOTION":"1.00272039","TLE_LINE1":"1 38740U 12043A   16236.88585002 -.00000048 +00000-0 +00000-0 0  9999","TLE_LINE2":"2 38740 000.0126 127.8714 0000312 002.8563 229.2719 01.00272039014835","LAUNCH_DATE":"2012-08-02","LAUNCH_SITE":"FRENCH GUIANA","OWNER":"INTERNATIONAL TELECOMMUNICATIONS SATELLITE ORGANIZATION (INTELSAT)","ORBIT_TYPE":"Geosynchronous","OPERATIONAL_STATUS":"Operational","satInfo":{"lng":81.86703629329328,"lat":1.9100669249393165,"elevation":-6.703696151389125,"azimuth":233.13296370670668,"range":42431.0048894218,"height":35786.1760821552,"velocity":3.0747446065857917},"x":264,"y":-40,"dx":0.43498656133744545,"dy":3.04382014698376},{"OBJECT_ID":"2012-045B","OBJECT_NAME":"BLOCK DM-SL R/B","NORAD_CAT_ID":"38750","OBJECT_TYPE":"ROCKET BODY","PERIOD":"609.667","INCLINATION":"0.5405","APOGEE":"34581.411","PERIGEE":"296.535","ECCENTRICITY":"0.7197531","MEAN_MOTION":"2.36194186","TLE_LINE1":"1 38750U 12045B   16238.55740687 +.00000890 +00000-0 +50507-3 0  9994","TLE_LINE2":"2 38750 000.5405 320.8917 7197531 267.7269 042.6962 02.36194186034209","LAUNCH_DATE":"2012-08-19","LAUNCH_SITE":"SEA LAUNCH","OWNER":"SEA LAUNCH DEMO","ORBIT_TYPE":"Highly Elliptical Orbit","OPERATIONAL_STATUS":"N/A, derelict rocket body","satInfo":{"lng":91.54709620433285,"lat":0.13000424115896567,"elevation":-14.638289910175986,"azimuth":223.45290379566714,"range":24938.94007278698,"height":17751.359557107106,"velocity":4.026285456281656},"x":132,"y":4,"dx":-0.10870423772954094,"dy":4.02481775539773},{"OBJECT_ID":"2012-062B","OBJECT_NAME":"EUTE 21B","NORAD_CAT_ID":"38992","OBJECT_TYPE":"PAYLOAD","PERIOD":"1436.091","INCLINATION":"0.0663","APOGEE":"35795.260","PERIGEE":"35777.712","ECCENTRICITY":"0.0002081","MEAN_MOTION":"1.00272179","TLE_LINE1":"1 38992U 12062B   16238.01311834 +.00000104 +00000-0 +00000-0 0  9998","TLE_LINE2":"2 38992 000.0663 004.5604 0002081 154.9412 200.5019 01.00272179013936","LAUNCH_DATE":"2012-11-10","LAUNCH_SITE":"FRENCH GUIANA","OWNER":"EUROPEAN TELECOMMUNICATIONS SATELLITE ORGANIZATION (EUTELSAT)","ORBIT_TYPE":"Geosynchronous","OPERATIONAL_STATUS":"Operational","satInfo":{"lng":44.1681642172233,"lat":-0.02540367941195989,"elevation":-8.604811278879886,"azimuth":270.8318357827767,"range":42613.64829616159,"height":35755.84856672764,"velocity":3.076127022174793},"x":186,"y":-202,"dx":2.2064993585279886,"dy":2.1433427251304296},{"OBJECT_ID":"2012-069A","OBJECT_NAME":"EUTE 70B","NORAD_CAT_ID":"39020","OBJECT_TYPE":"PAYLOAD","PERIOD":"1436.069","INCLINATION":"0.0624","APOGEE":"35796.378","PERIGEE":"35775.743","ECCENTRICITY":"0.0002447","MEAN_MOTION":"1.00273696","TLE_LINE1":"1 39020U 12069A   16238.87486356 -.00000072 +00000-0 +00000-0 0  9999","TLE_LINE2":"2 39020 000.0624 013.1367 0002447 133.0370 213.8355 01.00273696013581","LAUNCH_DATE":"2012-12-03","LAUNCH_SITE":"SEA LAUNCH","OWNER":"EUROPEAN TELECOMMUNICATIONS SATELLITE ORGANIZATION (EUTELSAT)","ORBIT_TYPE":"Geosynchronous","OPERATIONAL_STATUS":"Operational","satInfo":{"lng":79.77485358409142,"lat":-0.25345448167189494,"elevation":-8.822680436583479,"azimuth":235.2251464159086,"range":42662.34776138906,"height":35779.83103992101,"velocity":3.0752122647246973},"x":263,"y":-50,"dx":0.5459014550738932,"dy":3.0263711065336003}]